{
  "norad_id": 47789,
  "name": "STARLINK-2315",
  "history": [
    {
      "epoch": "2026-03-28T20:52:07.603680Z",
      "apogee_km": 548.2737619052059,
      "perigee_km": 546.1649908885938,
      "latitude_deg": 3.433837420601328e-05,
      "longitude_deg": 6.201057476224633,
      "height_km": 548.2026695926925,
      "semi_major_axis_km": 6925.3563763969,
      "eccentricity": 0.00015225,
      "inclination_deg": 53.0558,
      "raan_deg": 145.5165,
      "arg_perigee_deg": 95.768,
      "mean_anomaly_deg": 264.3483,
      "mean_motion_rev_day": 15.06397449
    }
  ]
}